<?xml version="1.0" encoding="UTF-8"?>
<gpx creator="https://gpx.studio" version="1.1" xmlns="http://www.topografix.com/GPX/1/1" xmlns:xsi="http://www.w3.org/2001/XMLSchema-instance" xsi:schemaLocation="http://www.topografix.com/GPX/1/1 http://www.topografix.com/GPX/1/1/gpx.xsd http://www.garmin.com/xmlschemas/GpxExtensions/v3 http://www.garmin.com/xmlschemas/GpxExtensionsv3.xsd http://www.garmin.com/xmlschemas/TrackPointExtension/v1 http://www.garmin.com/xmlschemas/TrackPointExtensionv1.xsd http://www.garmin.com/xmlschemas/PowerExtension/v1 http://www.garmin.com/xmlschemas/PowerExtensionv1.xsd http://www.topografix.com/GPX/gpx_style/0/2 http://www.topografix.com/GPX/gpx_style/0/2/gpx_style.xsd" xmlns:gpxtpx="http://www.garmin.com/xmlschemas/TrackPointExtension/v1" xmlns:gpxx="http://www.garmin.com/xmlschemas/GpxExtensions/v3" xmlns:gpxpx="http://www.garmin.com/xmlschemas/PowerExtension/v1" xmlns:gpx_style="http://www.topografix.com/GPX/gpx_style/0/2">
  <metadata>
    <name>Danbury Common - Mini Circular</name>
    <author>
      <name>gpx.studio</name>
      <link href="https://gpx.studio"/>
    </author>
  </metadata>
  <trk>
    <name>Danbury Common - Mini Circular</name>
    <trkseg>
      <trkpt lat="51.71032540419887" lon="0.5776411655564004">
        <ele>69.0396298005736</ele>
      </trkpt>
      <trkpt lat="51.71004576856103" lon="0.5782094530197343">
        <ele>67.00723373523465</ele>
      </trkpt>
      <trkpt lat="51.709939" lon="0.578409">
        <ele>66.54</ele>
      </trkpt>
      <trkpt lat="51.709807" lon="0.578541">
        <ele>66</ele>
      </trkpt>
      <trkpt lat="51.709772" lon="0.578576">
        <ele>66</ele>
      </trkpt>
      <trkpt lat="51.709641" lon="0.578666">
        <ele>64.93</ele>
      </trkpt>
      <trkpt lat="51.709255" lon="0.579481">
        <ele>62.18</ele>
      </trkpt>
      <trkpt lat="51.709148" lon="0.57976">
        <ele>61.4</ele>
      </trkpt>
      <trkpt lat="51.709102" lon="0.580124">
        <ele>60.8</ele>
      </trkpt>
      <trkpt lat="51.709106" lon="0.580211">
        <ele>60.06722516150721</ele>
      </trkpt>
      <trkpt lat="51.70895" lon="0.580686">
        <ele>58.91</ele>
      </trkpt>
      <trkpt lat="51.708817" lon="0.581195">
        <ele>57</ele>
      </trkpt>
      <trkpt lat="51.708846" lon="0.581202">
        <ele>56.99</ele>
      </trkpt>
      <trkpt lat="51.70915" lon="0.581279">
        <ele>56.87</ele>
      </trkpt>
      <trkpt lat="51.709936" lon="0.581345">
        <ele>57.02</ele>
      </trkpt>
      <trkpt lat="51.709959" lon="0.581347">
        <ele>57.02</ele>
      </trkpt>
      <trkpt lat="51.709986" lon="0.581301">
        <ele>57.29</ele>
      </trkpt>
      <trkpt lat="51.710082" lon="0.581277">
        <ele>57.43</ele>
      </trkpt>
      <trkpt lat="51.710431" lon="0.58114">
        <ele>59.22</ele>
      </trkpt>
      <trkpt lat="51.710655" lon="0.580986">
        <ele>59.78</ele>
      </trkpt>
      <trkpt lat="51.710712" lon="0.580947">
        <ele>59.92</ele>
      </trkpt>
      <trkpt lat="51.710804" lon="0.580894">
        <ele>60</ele>
      </trkpt>
      <trkpt lat="51.710994" lon="0.580631">
        <ele>61.38</ele>
      </trkpt>
      <trkpt lat="51.711107" lon="0.580459">
        <ele>62.6</ele>
      </trkpt>
      <trkpt lat="51.711191" lon="0.580255">
        <ele>63.61</ele>
      </trkpt>
      <trkpt lat="51.711309" lon="0.58007">
        <ele>64.92</ele>
      </trkpt>
      <trkpt lat="51.711462" lon="0.579915">
        <ele>66.32</ele>
      </trkpt>
      <trkpt lat="51.711476" lon="0.5799">
        <ele>66.56</ele>
      </trkpt>
      <trkpt lat="51.711514" lon="0.579861">
        <ele>67.2</ele>
      </trkpt>
      <trkpt lat="51.711736" lon="0.579336">
        <ele>70.83</ele>
      </trkpt>
      <trkpt lat="51.711845" lon="0.579078">
        <ele>72.61</ele>
      </trkpt>
      <trkpt lat="51.711937" lon="0.578918">
        <ele>73.41907903166505</ele>
      </trkpt>
      <trkpt lat="51.71184267955593" lon="0.5787613956151745">
        <ele>72.9215491691655</ele>
      </trkpt>
      <trkpt lat="51.71180726559464" lon="0.5785442081559609">
        <ele>72.46974209590535</ele>
      </trkpt>
      <trkpt lat="51.711920590173634" lon="0.5783841752904948">
        <ele>74.23136696475801</ele>
      </trkpt>
      <trkpt lat="51.71188517627331" lon="0.5781898496690019">
        <ele>75.37637133304081</ele>
      </trkpt>
      <trkpt lat="51.71184267955593" lon="0.5780755404790341">
        <ele>75.46136014162934</ele>
      </trkpt>
      <trkpt lat="51.711899341836755" lon="0.577858353019792">
        <ele>76.22270355067089</ele>
      </trkpt>
      <trkpt lat="51.71194183850088" lon="0.5777097510738258">
        <ele>76.77810968211762</ele>
      </trkpt>
      <trkpt lat="51.711945" lon="0.577684">
        <ele>77.1</ele>
      </trkpt>
      <trkpt lat="51.71182" lon="0.577645">
        <ele>76.28</ele>
      </trkpt>
      <trkpt lat="51.711645" lon="0.577628">
        <ele>75.41</ele>
      </trkpt>
      <trkpt lat="51.711408" lon="0.577688">
        <ele>74.12</ele>
      </trkpt>
      <trkpt lat="51.71129" lon="0.577782">
        <ele>73.3</ele>
      </trkpt>
      <trkpt lat="51.711212" lon="0.577809">
        <ele>73</ele>
      </trkpt>
      <trkpt lat="51.711077" lon="0.577557">
        <ele>72.64</ele>
      </trkpt>
      <trkpt lat="51.71097" lon="0.577462">
        <ele>72.19</ele>
      </trkpt>
      <trkpt lat="51.710921" lon="0.577418">
        <ele>71.98</ele>
      </trkpt>
      <trkpt lat="51.710777" lon="0.577337">
        <ele>71.48</ele>
      </trkpt>
      <trkpt lat="51.710534" lon="0.577246">
        <ele>70.18</ele>
      </trkpt>
      <trkpt lat="51.710471" lon="0.577195">
        <ele>70</ele>
      </trkpt>
      <trkpt lat="51.710272" lon="0.577221">
        <ele>69.75</ele>
      </trkpt>
      <trkpt lat="51.710193" lon="0.577214">
        <ele>69.03</ele>
      </trkpt>
    </trkseg>
  </trk>
</gpx>
