<?xml version="1.0" encoding="UTF-8"?>
<gpx creator="https://gpx.studio" version="1.1" xmlns="http://www.topografix.com/GPX/1/1" xmlns:xsi="http://www.w3.org/2001/XMLSchema-instance" xsi:schemaLocation="http://www.topografix.com/GPX/1/1 http://www.topografix.com/GPX/1/1/gpx.xsd http://www.garmin.com/xmlschemas/GpxExtensions/v3 http://www.garmin.com/xmlschemas/GpxExtensionsv3.xsd http://www.garmin.com/xmlschemas/TrackPointExtension/v1 http://www.garmin.com/xmlschemas/TrackPointExtensionv1.xsd http://www.garmin.com/xmlschemas/PowerExtension/v1 http://www.garmin.com/xmlschemas/PowerExtensionv1.xsd http://www.topografix.com/GPX/gpx_style/0/2 http://www.topografix.com/GPX/gpx_style/0/2/gpx_style.xsd" xmlns:gpxtpx="http://www.garmin.com/xmlschemas/TrackPointExtension/v1" xmlns:gpxx="http://www.garmin.com/xmlschemas/GpxExtensions/v3" xmlns:gpxpx="http://www.garmin.com/xmlschemas/PowerExtension/v1" xmlns:gpx_style="http://www.topografix.com/GPX/gpx_style/0/2">
  <metadata>
    <name>Dedham - Short Circular</name>
    <author>
      <name>gpx.studio</name>
      <link href="https://gpx.studio"/>
    </author>
  </metadata>
  <trk>
    <name>Dedham - Short Circular</name>
    <trkseg>
      <trkpt lat="51.960263" lon="0.993409">
        <ele>5.04</ele>
      </trkpt>
      <trkpt lat="51.960258" lon="0.993395">
        <ele>5.05</ele>
      </trkpt>
      <trkpt lat="51.96024" lon="0.993386">
        <ele>5.13</ele>
      </trkpt>
      <trkpt lat="51.959874" lon="0.993393">
        <ele>5.84</ele>
      </trkpt>
      <trkpt lat="51.95895" lon="0.993437">
        <ele>8</ele>
      </trkpt>
      <trkpt lat="51.958949" lon="0.993953">
        <ele>7.58</ele>
      </trkpt>
      <trkpt lat="51.959019" lon="0.994951">
        <ele>7</ele>
      </trkpt>
      <trkpt lat="51.959046" lon="0.995484">
        <ele>7</ele>
      </trkpt>
      <trkpt lat="51.959043" lon="0.995604">
        <ele>7</ele>
      </trkpt>
      <trkpt lat="51.958997" lon="0.995817">
        <ele>7</ele>
      </trkpt>
      <trkpt lat="51.958942" lon="0.995952">
        <ele>7</ele>
      </trkpt>
      <trkpt lat="51.958869" lon="0.996027">
        <ele>7</ele>
      </trkpt>
      <trkpt lat="51.958865" lon="0.996029">
        <ele>7</ele>
      </trkpt>
      <trkpt lat="51.958869" lon="0.996027">
        <ele>7</ele>
      </trkpt>
      <trkpt lat="51.959077" lon="0.996461">
        <ele>7</ele>
      </trkpt>
      <trkpt lat="51.959723" lon="0.997565">
        <ele>7</ele>
      </trkpt>
      <trkpt lat="51.959874" lon="0.99777">
        <ele>7</ele>
      </trkpt>
      <trkpt lat="51.960198" lon="0.998904">
        <ele>6.33</ele>
      </trkpt>
      <trkpt lat="51.960181" lon="0.998948">
        <ele>6.3</ele>
      </trkpt>
      <trkpt lat="51.960198" lon="0.998904">
        <ele>6.33</ele>
      </trkpt>
      <trkpt lat="51.960461" lon="0.999374">
        <ele>4</ele>
      </trkpt>
      <trkpt lat="51.960501" lon="0.999427">
        <ele>3.88</ele>
      </trkpt>
      <trkpt lat="51.960621" lon="0.999751">
        <ele>3.12</ele>
      </trkpt>
      <trkpt lat="51.960822" lon="1.000191">
        <ele>3.32</ele>
      </trkpt>
      <trkpt lat="51.961154" lon="1.000835">
        <ele>4</ele>
      </trkpt>
      <trkpt lat="51.961549" lon="1.001641">
        <ele>3.17</ele>
      </trkpt>
      <trkpt lat="51.961563" lon="1.001671">
        <ele>3.14</ele>
      </trkpt>
      <trkpt lat="51.961692" lon="1.002181">
        <ele>3.27</ele>
      </trkpt>
      <trkpt lat="51.962066" lon="1.003665">
        <ele>3.93</ele>
      </trkpt>
      <trkpt lat="51.962188" lon="1.004211">
        <ele>3.43</ele>
      </trkpt>
      <trkpt lat="51.962188" lon="1.004211">
        <ele>3.43</ele>
      </trkpt>
      <trkpt lat="51.962156" lon="1.004311">
        <ele>3.25</ele>
      </trkpt>
      <trkpt lat="51.962031" lon="1.004632">
        <ele>3.4</ele>
      </trkpt>
      <trkpt lat="51.961934" lon="1.004803">
        <ele>3.34</ele>
      </trkpt>
      <trkpt lat="51.961652" lon="1.005302">
        <ele>4</ele>
      </trkpt>
      <trkpt lat="51.961588" lon="1.005446">
        <ele>4</ele>
      </trkpt>
      <trkpt lat="51.961258" lon="1.006186">
        <ele>4</ele>
      </trkpt>
      <trkpt lat="51.961218" lon="1.006477">
        <ele>4</ele>
      </trkpt>
      <trkpt lat="51.961197" lon="1.006693">
        <ele>4</ele>
      </trkpt>
      <trkpt lat="51.961233" lon="1.006806">
        <ele>3.93</ele>
      </trkpt>
      <trkpt lat="51.96124" lon="1.006829">
        <ele>3.86</ele>
      </trkpt>
      <trkpt lat="51.961303" lon="1.007023">
        <ele>3.27</ele>
      </trkpt>
      <trkpt lat="51.961382" lon="1.007203">
        <ele>3.48</ele>
      </trkpt>
      <trkpt lat="51.961464" lon="1.007307">
        <ele>3.53</ele>
      </trkpt>
      <trkpt lat="51.961498" lon="1.007332">
        <ele>3.55</ele>
      </trkpt>
      <trkpt lat="51.962043" lon="1.007742">
        <ele>4</ele>
      </trkpt>
      <trkpt lat="51.962429" lon="1.008141">
        <ele>3.44</ele>
      </trkpt>
      <trkpt lat="51.962454" lon="1.008167">
        <ele>3.41</ele>
      </trkpt>
      <trkpt lat="51.962478" lon="1.008144">
        <ele>3.18</ele>
      </trkpt>
      <trkpt lat="51.962457" lon="1.00808">
        <ele>3.38</ele>
      </trkpt>
      <trkpt lat="51.962428" lon="1.008005">
        <ele>3.39</ele>
      </trkpt>
      <trkpt lat="51.962588" lon="1.007784">
        <ele>3.59</ele>
      </trkpt>
      <trkpt lat="51.962607" lon="1.007762">
        <ele>3.83</ele>
      </trkpt>
      <trkpt lat="51.962629" lon="1.007736">
        <ele>3.98</ele>
      </trkpt>
      <trkpt lat="51.962738" lon="1.007683">
        <ele>4</ele>
      </trkpt>
      <trkpt lat="51.962819" lon="1.007659">
        <ele>4</ele>
      </trkpt>
      <trkpt lat="51.96292" lon="1.007656">
        <ele>4</ele>
      </trkpt>
      <trkpt lat="51.963208" lon="1.007742">
        <ele>3.96</ele>
      </trkpt>
      <trkpt lat="51.963334" lon="1.007839">
        <ele>3.59</ele>
      </trkpt>
      <trkpt lat="51.963483" lon="1.007986">
        <ele>3.48</ele>
      </trkpt>
      <trkpt lat="51.963584" lon="1.008102">
        <ele>3.27</ele>
      </trkpt>
      <trkpt lat="51.963629" lon="1.008154">
        <ele>3.18</ele>
      </trkpt>
      <trkpt lat="51.96365" lon="1.008097">
        <ele>3.18</ele>
      </trkpt>
      <trkpt lat="51.963663" lon="1.008043">
        <ele>3.09</ele>
      </trkpt>
      <trkpt lat="51.963836" lon="1.005516">
        <ele>3.16</ele>
      </trkpt>
      <trkpt lat="51.963862" lon="1.00419">
        <ele>3.19</ele>
      </trkpt>
      <trkpt lat="51.963961" lon="1.003214">
        <ele>3.27</ele>
      </trkpt>
      <trkpt lat="51.963916" lon="1.001402">
        <ele>4</ele>
      </trkpt>
      <trkpt lat="51.963917" lon="0.999943">
        <ele>4.01</ele>
      </trkpt>
      <trkpt lat="51.96403" lon="0.999076">
        <ele>4.31</ele>
      </trkpt>
      <trkpt lat="51.964116" lon="0.998595">
        <ele>4</ele>
      </trkpt>
      <trkpt lat="51.964146" lon="0.998138">
        <ele>4</ele>
      </trkpt>
      <trkpt lat="51.964087" lon="0.99764">
        <ele>4</ele>
      </trkpt>
      <trkpt lat="51.963794" lon="0.996122">
        <ele>4</ele>
      </trkpt>
      <trkpt lat="51.963674" lon="0.995561">
        <ele>4</ele>
      </trkpt>
      <trkpt lat="51.963522" lon="0.994941">
        <ele>4</ele>
      </trkpt>
      <trkpt lat="51.963311" lon="0.994293">
        <ele>4</ele>
      </trkpt>
      <trkpt lat="51.963272" lon="0.994114">
        <ele>4</ele>
      </trkpt>
      <trkpt lat="51.963262" lon="0.994018">
        <ele>4</ele>
      </trkpt>
      <trkpt lat="51.963256" lon="0.993978">
        <ele>4</ele>
      </trkpt>
      <trkpt lat="51.963248" lon="0.993982">
        <ele>4</ele>
      </trkpt>
      <trkpt lat="51.963256" lon="0.993978">
        <ele>4</ele>
      </trkpt>
      <trkpt lat="51.96325" lon="0.993931">
        <ele>4</ele>
      </trkpt>
      <trkpt lat="51.963109" lon="0.99402">
        <ele>4.02</ele>
      </trkpt>
      <trkpt lat="51.963013" lon="0.994066">
        <ele>5</ele>
      </trkpt>
      <trkpt lat="51.963019" lon="0.994094">
        <ele>5</ele>
      </trkpt>
      <trkpt lat="51.962698" lon="0.994243">
        <ele>4.76</ele>
      </trkpt>
      <trkpt lat="51.962611" lon="0.994247">
        <ele>4.77</ele>
      </trkpt>
      <trkpt lat="51.962423" lon="0.9942">
        <ele>4.77</ele>
      </trkpt>
      <trkpt lat="51.961845" lon="0.994029">
        <ele>4.7</ele>
      </trkpt>
      <trkpt lat="51.961643" lon="0.993902">
        <ele>4.76</ele>
      </trkpt>
      <trkpt lat="51.961265" lon="0.99355">
        <ele>4.66</ele>
      </trkpt>
      <trkpt lat="51.961168" lon="0.993483">
        <ele>4.93</ele>
      </trkpt>
      <trkpt lat="51.960941" lon="0.99349">
        <ele>5</ele>
      </trkpt>
      <trkpt lat="51.960959" lon="0.993641">
        <ele>5</ele>
      </trkpt>
      <trkpt lat="51.96055" lon="0.993612">
        <ele>5</ele>
      </trkpt>
      <trkpt lat="51.960507" lon="0.993659">
        <ele>5</ele>
      </trkpt>
      <trkpt lat="51.960457" lon="0.9938">
        <ele>5</ele>
      </trkpt>
      <trkpt lat="51.960478" lon="0.993895">
        <ele>5</ele>
      </trkpt>
      <trkpt lat="51.960512" lon="0.99387">
        <ele>5</ele>
      </trkpt>
    </trkseg>
  </trk>
</gpx>
