<?xml version="1.0" encoding="UTF-8"?>
<gpx creator="https://gpx.studio" version="1.1" xmlns="http://www.topografix.com/GPX/1/1" xmlns:xsi="http://www.w3.org/2001/XMLSchema-instance" xsi:schemaLocation="http://www.topografix.com/GPX/1/1 http://www.topografix.com/GPX/1/1/gpx.xsd http://www.garmin.com/xmlschemas/GpxExtensions/v3 http://www.garmin.com/xmlschemas/GpxExtensionsv3.xsd http://www.garmin.com/xmlschemas/TrackPointExtension/v1 http://www.garmin.com/xmlschemas/TrackPointExtensionv1.xsd http://www.garmin.com/xmlschemas/PowerExtension/v1 http://www.garmin.com/xmlschemas/PowerExtensionv1.xsd http://www.topografix.com/GPX/gpx_style/0/2 http://www.topografix.com/GPX/gpx_style/0/2/gpx_style.xsd" xmlns:gpxtpx="http://www.garmin.com/xmlschemas/TrackPointExtension/v1" xmlns:gpxx="http://www.garmin.com/xmlschemas/GpxExtensions/v3" xmlns:gpxpx="http://www.garmin.com/xmlschemas/PowerExtension/v1" xmlns:gpx_style="http://www.topografix.com/GPX/gpx_style/0/2">
  <metadata>
    <name>Flatford to Dedham Circular</name>
    <author>
      <name>gpx.studio</name>
      <link href="https://gpx.studio"/>
    </author>
  </metadata>
  <trk>
    <name>Flatford to Dedham Circular</name>
    <trkseg>
      <trkpt lat="51.961538" lon="1.020154">
        <ele>17.09</ele>
      </trkpt>
      <trkpt lat="51.961447" lon="1.020133">
        <ele>16.81</ele>
      </trkpt>
      <trkpt lat="51.96137" lon="1.020084">
        <ele>16.37</ele>
      </trkpt>
      <trkpt lat="51.961227" lon="1.019932">
        <ele>15.01</ele>
      </trkpt>
      <trkpt lat="51.961109" lon="1.019972">
        <ele>14.58</ele>
      </trkpt>
      <trkpt lat="51.96066" lon="1.019792">
        <ele>11.18</ele>
      </trkpt>
      <trkpt lat="51.96033" lon="1.019637">
        <ele>8.77</ele>
      </trkpt>
      <trkpt lat="51.960177" lon="1.019739">
        <ele>6.13</ele>
      </trkpt>
      <trkpt lat="51.960092" lon="1.01974">
        <ele>5.87</ele>
      </trkpt>
      <trkpt lat="51.95996" lon="1.019825">
        <ele>5.35</ele>
      </trkpt>
      <trkpt lat="51.959914" lon="1.019885">
        <ele>5.03</ele>
      </trkpt>
      <trkpt lat="51.95958" lon="1.019636">
        <ele>3</ele>
      </trkpt>
      <trkpt lat="51.95957" lon="1.01959">
        <ele>3</ele>
      </trkpt>
      <trkpt lat="51.959525" lon="1.019456">
        <ele>3</ele>
      </trkpt>
      <trkpt lat="51.959502" lon="1.019257">
        <ele>3</ele>
      </trkpt>
      <trkpt lat="51.959417" lon="1.018715">
        <ele>3</ele>
      </trkpt>
      <trkpt lat="51.959137" lon="1.017545">
        <ele>3</ele>
      </trkpt>
      <trkpt lat="51.959059" lon="1.017056">
        <ele>3</ele>
      </trkpt>
      <trkpt lat="51.959014" lon="1.01685">
        <ele>3</ele>
      </trkpt>
      <trkpt lat="51.958989" lon="1.016736">
        <ele>3</ele>
      </trkpt>
      <trkpt lat="51.958946" lon="1.016541">
        <ele>3</ele>
      </trkpt>
      <trkpt lat="51.958952" lon="1.016418">
        <ele>3</ele>
      </trkpt>
      <trkpt lat="51.958968" lon="1.016322">
        <ele>3</ele>
      </trkpt>
      <trkpt lat="51.959666" lon="1.014496">
        <ele>3</ele>
      </trkpt>
      <trkpt lat="51.959938" lon="1.013621">
        <ele>3</ele>
      </trkpt>
      <trkpt lat="51.960072" lon="1.013454">
        <ele>3</ele>
      </trkpt>
      <trkpt lat="51.960445" lon="1.013038">
        <ele>3</ele>
      </trkpt>
      <trkpt lat="51.960743" lon="1.012346">
        <ele>3</ele>
      </trkpt>
      <trkpt lat="51.960994" lon="1.011542">
        <ele>3</ele>
      </trkpt>
      <trkpt lat="51.961083" lon="1.010776">
        <ele>3</ele>
      </trkpt>
      <trkpt lat="51.961106" lon="1.010573">
        <ele>3</ele>
      </trkpt>
      <trkpt lat="51.96113" lon="1.010261">
        <ele>3</ele>
      </trkpt>
      <trkpt lat="51.96121" lon="1.010152">
        <ele>3</ele>
      </trkpt>
      <trkpt lat="51.961257" lon="1.01015">
        <ele>3.11</ele>
      </trkpt>
      <trkpt lat="51.961513" lon="1.010143">
        <ele>3.7</ele>
      </trkpt>
      <trkpt lat="51.961785" lon="1.01028">
        <ele>3.05</ele>
      </trkpt>
      <trkpt lat="51.96187" lon="1.010259">
        <ele>3.28</ele>
      </trkpt>
      <trkpt lat="51.961946" lon="1.010053">
        <ele>3.51</ele>
      </trkpt>
      <trkpt lat="51.962491" lon="1.008187">
        <ele>3.06</ele>
      </trkpt>
      <trkpt lat="51.962478" lon="1.008144">
        <ele>3.18</ele>
      </trkpt>
      <trkpt lat="51.962454" lon="1.008167">
        <ele>3.41</ele>
      </trkpt>
      <trkpt lat="51.962398" lon="1.008219">
        <ele>3.39</ele>
      </trkpt>
      <trkpt lat="51.962454" lon="1.008167">
        <ele>3.41</ele>
      </trkpt>
      <trkpt lat="51.962478" lon="1.008144">
        <ele>3.18</ele>
      </trkpt>
      <trkpt lat="51.962457" lon="1.00808">
        <ele>3.38</ele>
      </trkpt>
      <trkpt lat="51.962428" lon="1.008005">
        <ele>3.39</ele>
      </trkpt>
      <trkpt lat="51.962588" lon="1.007784">
        <ele>3.59</ele>
      </trkpt>
      <trkpt lat="51.962607" lon="1.007762">
        <ele>3.83</ele>
      </trkpt>
      <trkpt lat="51.962629" lon="1.007736">
        <ele>3.98</ele>
      </trkpt>
      <trkpt lat="51.962738" lon="1.007683">
        <ele>4</ele>
      </trkpt>
      <trkpt lat="51.962819" lon="1.007659">
        <ele>4</ele>
      </trkpt>
      <trkpt lat="51.96292" lon="1.007656">
        <ele>4</ele>
      </trkpt>
      <trkpt lat="51.963208" lon="1.007742">
        <ele>3.96</ele>
      </trkpt>
      <trkpt lat="51.963334" lon="1.007839">
        <ele>3.59</ele>
      </trkpt>
      <trkpt lat="51.963483" lon="1.007986">
        <ele>3.48</ele>
      </trkpt>
      <trkpt lat="51.963603" lon="1.008124">
        <ele>3.23</ele>
      </trkpt>
      <trkpt lat="51.963629" lon="1.008154">
        <ele>3.18</ele>
      </trkpt>
      <trkpt lat="51.96365" lon="1.008097">
        <ele>3.18</ele>
      </trkpt>
      <trkpt lat="51.963663" lon="1.008043">
        <ele>3.09</ele>
      </trkpt>
      <trkpt lat="51.963836" lon="1.005516">
        <ele>3.16</ele>
      </trkpt>
      <trkpt lat="51.963862" lon="1.00419">
        <ele>3.19</ele>
      </trkpt>
      <trkpt lat="51.963961" lon="1.003214">
        <ele>3.27</ele>
      </trkpt>
      <trkpt lat="51.963916" lon="1.001402">
        <ele>4</ele>
      </trkpt>
      <trkpt lat="51.963915" lon="0.999962">
        <ele>4</ele>
      </trkpt>
      <trkpt lat="51.96403" lon="0.999076">
        <ele>4.31</ele>
      </trkpt>
      <trkpt lat="51.964116" lon="0.998595">
        <ele>4</ele>
      </trkpt>
      <trkpt lat="51.964146" lon="0.998138">
        <ele>4</ele>
      </trkpt>
      <trkpt lat="51.964137" lon="0.99806">
        <ele>4</ele>
      </trkpt>
      <trkpt lat="51.964087" lon="0.99764">
        <ele>4</ele>
      </trkpt>
      <trkpt lat="51.963794" lon="0.996122">
        <ele>4</ele>
      </trkpt>
      <trkpt lat="51.963674" lon="0.995561">
        <ele>4</ele>
      </trkpt>
      <trkpt lat="51.963522" lon="0.994941">
        <ele>4</ele>
      </trkpt>
      <trkpt lat="51.963311" lon="0.994293">
        <ele>4</ele>
      </trkpt>
      <trkpt lat="51.963272" lon="0.994114">
        <ele>4</ele>
      </trkpt>
      <trkpt lat="51.963262" lon="0.994018">
        <ele>4</ele>
      </trkpt>
      <trkpt lat="51.963256" lon="0.993978">
        <ele>4</ele>
      </trkpt>
      <trkpt lat="51.963253" lon="0.993956">
        <ele>4</ele>
      </trkpt>
      <trkpt lat="51.96325" lon="0.993931">
        <ele>4</ele>
      </trkpt>
      <trkpt lat="51.963109" lon="0.99402">
        <ele>4.02</ele>
      </trkpt>
      <trkpt lat="51.963013" lon="0.994066">
        <ele>5</ele>
      </trkpt>
      <trkpt lat="51.963019" lon="0.994094">
        <ele>5</ele>
      </trkpt>
      <trkpt lat="51.962698" lon="0.994243">
        <ele>4.76</ele>
      </trkpt>
      <trkpt lat="51.962611" lon="0.994247">
        <ele>4.77</ele>
      </trkpt>
      <trkpt lat="51.961845" lon="0.994029">
        <ele>4.7</ele>
      </trkpt>
      <trkpt lat="51.961643" lon="0.993902">
        <ele>4.76</ele>
      </trkpt>
      <trkpt lat="51.961265" lon="0.99355">
        <ele>4.66</ele>
      </trkpt>
      <trkpt lat="51.961168" lon="0.993483">
        <ele>4.93</ele>
      </trkpt>
      <trkpt lat="51.960941" lon="0.99349">
        <ele>5</ele>
      </trkpt>
      <trkpt lat="51.96024" lon="0.993386">
        <ele>5.13</ele>
      </trkpt>
      <trkpt lat="51.95895" lon="0.993437">
        <ele>8</ele>
      </trkpt>
      <trkpt lat="51.958944" lon="0.993374">
        <ele>8.05</ele>
      </trkpt>
      <trkpt lat="51.95895" lon="0.993437">
        <ele>8</ele>
      </trkpt>
      <trkpt lat="51.958949" lon="0.993953">
        <ele>7.58</ele>
      </trkpt>
      <trkpt lat="51.959019" lon="0.994951">
        <ele>7</ele>
      </trkpt>
      <trkpt lat="51.959046" lon="0.995484">
        <ele>7</ele>
      </trkpt>
      <trkpt lat="51.959043" lon="0.995604">
        <ele>7</ele>
      </trkpt>
      <trkpt lat="51.958997" lon="0.995817">
        <ele>7</ele>
      </trkpt>
      <trkpt lat="51.958942" lon="0.995952">
        <ele>7</ele>
      </trkpt>
      <trkpt lat="51.958869" lon="0.996027">
        <ele>7</ele>
      </trkpt>
      <trkpt lat="51.958891" lon="0.996072">
        <ele>7</ele>
      </trkpt>
      <trkpt lat="51.959077" lon="0.996461">
        <ele>7</ele>
      </trkpt>
      <trkpt lat="51.959723" lon="0.997565">
        <ele>7</ele>
      </trkpt>
      <trkpt lat="51.959874" lon="0.99777">
        <ele>7</ele>
      </trkpt>
      <trkpt lat="51.960193" lon="0.998886">
        <ele>6.34</ele>
      </trkpt>
      <trkpt lat="51.960461" lon="0.999374">
        <ele>4</ele>
      </trkpt>
      <trkpt lat="51.960501" lon="0.999427">
        <ele>3.88</ele>
      </trkpt>
      <trkpt lat="51.960621" lon="0.999751">
        <ele>3.12</ele>
      </trkpt>
      <trkpt lat="51.960822" lon="1.000191">
        <ele>3.32</ele>
      </trkpt>
      <trkpt lat="51.961154" lon="1.000835">
        <ele>4</ele>
      </trkpt>
      <trkpt lat="51.961563" lon="1.001671">
        <ele>3.14</ele>
      </trkpt>
      <trkpt lat="51.961692" lon="1.002181">
        <ele>3.27</ele>
      </trkpt>
      <trkpt lat="51.962066" lon="1.003665">
        <ele>3.93</ele>
      </trkpt>
      <trkpt lat="51.962188" lon="1.004211">
        <ele>3.43</ele>
      </trkpt>
      <trkpt lat="51.962188" lon="1.004211">
        <ele>3.43</ele>
      </trkpt>
      <trkpt lat="51.962156" lon="1.004311">
        <ele>3.25</ele>
      </trkpt>
      <trkpt lat="51.962031" lon="1.004632">
        <ele>3.4</ele>
      </trkpt>
      <trkpt lat="51.961934" lon="1.004803">
        <ele>3.34</ele>
      </trkpt>
      <trkpt lat="51.961916" lon="1.00512">
        <ele>3.48</ele>
      </trkpt>
      <trkpt lat="51.96193" lon="1.00534">
        <ele>3.36</ele>
      </trkpt>
      <trkpt lat="51.961933" lon="1.005539">
        <ele>3.33</ele>
      </trkpt>
      <trkpt lat="51.961913" lon="1.005732">
        <ele>3.32</ele>
      </trkpt>
      <trkpt lat="51.961867" lon="1.00586">
        <ele>3</ele>
      </trkpt>
      <trkpt lat="51.961751" lon="1.006032">
        <ele>3.04</ele>
      </trkpt>
      <trkpt lat="51.961583" lon="1.006207">
        <ele>3</ele>
      </trkpt>
      <trkpt lat="51.96143" lon="1.006349">
        <ele>3.11</ele>
      </trkpt>
      <trkpt lat="51.961311" lon="1.006563">
        <ele>3.19</ele>
      </trkpt>
      <trkpt lat="51.961233" lon="1.006806">
        <ele>3.93</ele>
      </trkpt>
      <trkpt lat="51.961167" lon="1.007038">
        <ele>4</ele>
      </trkpt>
      <trkpt lat="51.961082" lon="1.008039">
        <ele>3</ele>
      </trkpt>
      <trkpt lat="51.960915" lon="1.009529">
        <ele>3</ele>
      </trkpt>
      <trkpt lat="51.960907" lon="1.0096">
        <ele>3</ele>
      </trkpt>
      <trkpt lat="51.960431" lon="1.011847">
        <ele>3</ele>
      </trkpt>
      <trkpt lat="51.960264" lon="1.012448">
        <ele>3</ele>
      </trkpt>
      <trkpt lat="51.959938" lon="1.013621">
        <ele>3</ele>
      </trkpt>
      <trkpt lat="51.959666" lon="1.014496">
        <ele>3</ele>
      </trkpt>
      <trkpt lat="51.958968" lon="1.016322">
        <ele>3</ele>
      </trkpt>
      <trkpt lat="51.958952" lon="1.016418">
        <ele>3</ele>
      </trkpt>
      <trkpt lat="51.958946" lon="1.016541">
        <ele>3</ele>
      </trkpt>
      <trkpt lat="51.958989" lon="1.016736">
        <ele>3</ele>
      </trkpt>
      <trkpt lat="51.959014" lon="1.01685">
        <ele>3</ele>
      </trkpt>
      <trkpt lat="51.959059" lon="1.017056">
        <ele>3</ele>
      </trkpt>
      <trkpt lat="51.959137" lon="1.017545">
        <ele>3</ele>
      </trkpt>
      <trkpt lat="51.959417" lon="1.018715">
        <ele>3</ele>
      </trkpt>
      <trkpt lat="51.959502" lon="1.019257">
        <ele>3</ele>
      </trkpt>
      <trkpt lat="51.959525" lon="1.019456">
        <ele>3</ele>
      </trkpt>
      <trkpt lat="51.959562" lon="1.019553">
        <ele>3</ele>
      </trkpt>
      <trkpt lat="51.95958" lon="1.019636">
        <ele>3</ele>
      </trkpt>
      <trkpt lat="51.959914" lon="1.019885">
        <ele>5.03</ele>
      </trkpt>
      <trkpt lat="51.95996" lon="1.019825">
        <ele>5.35</ele>
      </trkpt>
      <trkpt lat="51.960092" lon="1.01974">
        <ele>5.87</ele>
      </trkpt>
      <trkpt lat="51.960177" lon="1.019739">
        <ele>6.13</ele>
      </trkpt>
      <trkpt lat="51.96033" lon="1.019637">
        <ele>8.77</ele>
      </trkpt>
      <trkpt lat="51.96066" lon="1.019792">
        <ele>11.18</ele>
      </trkpt>
      <trkpt lat="51.961109" lon="1.019972">
        <ele>14.58</ele>
      </trkpt>
      <trkpt lat="51.961227" lon="1.019932">
        <ele>15.01</ele>
      </trkpt>
      <trkpt lat="51.961434" lon="1.019548">
        <ele>16.04</ele>
      </trkpt>
    </trkseg>
  </trk>
</gpx>
