<?xml version="1.0" encoding="UTF-8"?>
<gpx creator="https://gpx.studio" version="1.1" xmlns="http://www.topografix.com/GPX/1/1" xmlns:xsi="http://www.w3.org/2001/XMLSchema-instance" xsi:schemaLocation="http://www.topografix.com/GPX/1/1 http://www.topografix.com/GPX/1/1/gpx.xsd http://www.garmin.com/xmlschemas/GpxExtensions/v3 http://www.garmin.com/xmlschemas/GpxExtensionsv3.xsd http://www.garmin.com/xmlschemas/TrackPointExtension/v1 http://www.garmin.com/xmlschemas/TrackPointExtensionv1.xsd http://www.garmin.com/xmlschemas/PowerExtension/v1 http://www.garmin.com/xmlschemas/PowerExtensionv1.xsd http://www.topografix.com/GPX/gpx_style/0/2 http://www.topografix.com/GPX/gpx_style/0/2/gpx_style.xsd" xmlns:gpxtpx="http://www.garmin.com/xmlschemas/TrackPointExtension/v1" xmlns:gpxx="http://www.garmin.com/xmlschemas/GpxExtensions/v3" xmlns:gpxpx="http://www.garmin.com/xmlschemas/PowerExtension/v1" xmlns:gpx_style="http://www.topografix.com/GPX/gpx_style/0/2">
  <metadata>
    <name>Heybridge Basin - Osea to Heybridge Basin Circular Out-and-Back</name>
    <author>
      <name>gpx.studio</name>
      <link href="https://gpx.studio"/>
    </author>
  </metadata>
  <trk>
    <name>Heybridge Basin - Osea to Heybridge Basin Circular Out-and-Back</name>
    <trkseg>
      <trkpt lat="51.73586716850579" lon="0.7288686165568663">
        <ele>2.4359250962053145</ele>
      </trkpt>
      <trkpt lat="51.735834" lon="0.728561">
        <ele>3</ele>
      </trkpt>
      <trkpt lat="51.735186" lon="0.728728">
        <ele>2.45</ele>
      </trkpt>
      <trkpt lat="51.735136" lon="0.728781">
        <ele>2.74</ele>
      </trkpt>
      <trkpt lat="51.735128" lon="0.72877">
        <ele>2.79</ele>
      </trkpt>
      <trkpt lat="51.735107" lon="0.728739">
        <ele>2.92</ele>
      </trkpt>
      <trkpt lat="51.734904" lon="0.728651">
        <ele>2.02</ele>
      </trkpt>
      <trkpt lat="51.734899" lon="0.728649">
        <ele>2</ele>
      </trkpt>
      <trkpt lat="51.734958" lon="0.728533">
        <ele>2</ele>
      </trkpt>
      <trkpt lat="51.734968" lon="0.728514">
        <ele>2</ele>
      </trkpt>
      <trkpt lat="51.734422" lon="0.727917">
        <ele>2</ele>
      </trkpt>
      <trkpt lat="51.733948" lon="0.727413">
        <ele>2.04</ele>
      </trkpt>
      <trkpt lat="51.73388" lon="0.727433">
        <ele>2.46</ele>
      </trkpt>
      <trkpt lat="51.73383" lon="0.727402">
        <ele>3</ele>
      </trkpt>
      <trkpt lat="51.733826" lon="0.727406">
        <ele>3.01</ele>
      </trkpt>
      <trkpt lat="51.733861" lon="0.727367">
        <ele>2.91</ele>
      </trkpt>
      <trkpt lat="51.73391" lon="0.727072">
        <ele>2.49</ele>
      </trkpt>
      <trkpt lat="51.733919" lon="0.726932">
        <ele>2.72</ele>
      </trkpt>
      <trkpt lat="51.733946" lon="0.72685">
        <ele>3</ele>
      </trkpt>
      <trkpt lat="51.734152" lon="0.726374">
        <ele>2.85</ele>
      </trkpt>
      <trkpt lat="51.73434" lon="0.725997">
        <ele>2.37</ele>
      </trkpt>
      <trkpt lat="51.734575" lon="0.725595">
        <ele>2.46</ele>
      </trkpt>
      <trkpt lat="51.734805" lon="0.724984">
        <ele>2.91</ele>
      </trkpt>
      <trkpt lat="51.734881" lon="0.724807">
        <ele>2.96</ele>
      </trkpt>
      <trkpt lat="51.735223" lon="0.724122">
        <ele>2.93</ele>
      </trkpt>
      <trkpt lat="51.735461" lon="0.723684">
        <ele>2.39</ele>
      </trkpt>
      <trkpt lat="51.735606" lon="0.723308">
        <ele>2.82</ele>
      </trkpt>
      <trkpt lat="51.735742" lon="0.722989">
        <ele>2.6</ele>
      </trkpt>
      <trkpt lat="51.736094" lon="0.722331">
        <ele>3.2</ele>
      </trkpt>
      <trkpt lat="51.736192" lon="0.722124">
        <ele>2.52</ele>
      </trkpt>
      <trkpt lat="51.736294" lon="0.721853">
        <ele>3.02</ele>
      </trkpt>
      <trkpt lat="51.736339" lon="0.721694">
        <ele>2.63</ele>
      </trkpt>
      <trkpt lat="51.736361" lon="0.721566">
        <ele>3.18</ele>
      </trkpt>
      <trkpt lat="51.736396" lon="0.721169">
        <ele>3.08</ele>
      </trkpt>
      <trkpt lat="51.736453" lon="0.720883">
        <ele>3.53</ele>
      </trkpt>
      <trkpt lat="51.736491" lon="0.720602">
        <ele>3.26</ele>
      </trkpt>
      <trkpt lat="51.73669" lon="0.719441">
        <ele>4.29</ele>
      </trkpt>
      <trkpt lat="51.736736" lon="0.719125">
        <ele>3.87</ele>
      </trkpt>
      <trkpt lat="51.736723" lon="0.719121">
        <ele>3.99</ele>
      </trkpt>
      <trkpt lat="51.736736" lon="0.719125">
        <ele>3.87</ele>
      </trkpt>
      <trkpt lat="51.736741" lon="0.717896">
        <ele>3.8</ele>
      </trkpt>
      <trkpt lat="51.736703" lon="0.717458">
        <ele>3.21</ele>
      </trkpt>
      <trkpt lat="51.736636" lon="0.717193">
        <ele>3.77</ele>
      </trkpt>
      <trkpt lat="51.736605" lon="0.716918">
        <ele>3.79</ele>
      </trkpt>
      <trkpt lat="51.736606" lon="0.716789">
        <ele>3.83</ele>
      </trkpt>
      <trkpt lat="51.736622" lon="0.71657">
        <ele>3.87</ele>
      </trkpt>
      <trkpt lat="51.736578" lon="0.716074">
        <ele>3.38</ele>
      </trkpt>
      <trkpt lat="51.736555" lon="0.715844">
        <ele>2.99</ele>
      </trkpt>
      <trkpt lat="51.7366" lon="0.715745">
        <ele>3.44</ele>
      </trkpt>
      <trkpt lat="51.736687" lon="0.715623">
        <ele>3.44</ele>
      </trkpt>
      <trkpt lat="51.736722" lon="0.715559">
        <ele>3.71</ele>
      </trkpt>
      <trkpt lat="51.7368" lon="0.715544">
        <ele>3.65</ele>
      </trkpt>
      <trkpt lat="51.736971" lon="0.715557">
        <ele>3.48</ele>
      </trkpt>
      <trkpt lat="51.737127" lon="0.715432">
        <ele>3.36</ele>
      </trkpt>
      <trkpt lat="51.737275" lon="0.715344">
        <ele>3.77</ele>
      </trkpt>
      <trkpt lat="51.737342" lon="0.715237">
        <ele>3.08</ele>
      </trkpt>
      <trkpt lat="51.737356" lon="0.715178">
        <ele>3</ele>
      </trkpt>
      <trkpt lat="51.737377" lon="0.715019">
        <ele>3.7</ele>
      </trkpt>
      <trkpt lat="51.737394" lon="0.714945">
        <ele>3.5</ele>
      </trkpt>
      <trkpt lat="51.737413" lon="0.714912">
        <ele>3.27</ele>
      </trkpt>
      <trkpt lat="51.737439" lon="0.714723">
        <ele>3</ele>
      </trkpt>
      <trkpt lat="51.737461" lon="0.714665">
        <ele>3</ele>
      </trkpt>
      <trkpt lat="51.737592" lon="0.714309">
        <ele>3</ele>
      </trkpt>
      <trkpt lat="51.737629" lon="0.714148">
        <ele>3</ele>
      </trkpt>
      <trkpt lat="51.737646" lon="0.71371">
        <ele>3</ele>
      </trkpt>
      <trkpt lat="51.737636" lon="0.71355">
        <ele>3.16</ele>
      </trkpt>
      <trkpt lat="51.737611" lon="0.713427">
        <ele>3.66</ele>
      </trkpt>
      <trkpt lat="51.737529" lon="0.713222">
        <ele>3.95</ele>
      </trkpt>
      <trkpt lat="51.737493" lon="0.713044">
        <ele>4.27</ele>
      </trkpt>
      <trkpt lat="51.737479" lon="0.712907">
        <ele>3.9</ele>
      </trkpt>
      <trkpt lat="51.737487" lon="0.712831">
        <ele>3.82</ele>
      </trkpt>
      <trkpt lat="51.73751" lon="0.71277">
        <ele>3.6</ele>
      </trkpt>
      <trkpt lat="51.737516" lon="0.712727">
        <ele>3.54</ele>
      </trkpt>
      <trkpt lat="51.737491" lon="0.712567">
        <ele>3.8</ele>
      </trkpt>
      <trkpt lat="51.737428" lon="0.712381">
        <ele>3.58</ele>
      </trkpt>
      <trkpt lat="51.736849" lon="0.710989">
        <ele>3.75</ele>
      </trkpt>
      <trkpt lat="51.736828" lon="0.710975">
        <ele>3.99</ele>
      </trkpt>
      <trkpt lat="51.736785" lon="0.710976">
        <ele>3.73</ele>
      </trkpt>
      <trkpt lat="51.736749" lon="0.711007">
        <ele>3.38</ele>
      </trkpt>
      <trkpt lat="51.736663" lon="0.711484">
        <ele>3.07</ele>
      </trkpt>
      <trkpt lat="51.736558" lon="0.712141">
        <ele>2.65</ele>
      </trkpt>
      <trkpt lat="51.736522" lon="0.71219">
        <ele>3.05</ele>
      </trkpt>
      <trkpt lat="51.736464" lon="0.712185">
        <ele>3.18</ele>
      </trkpt>
      <trkpt lat="51.735398" lon="0.7117">
        <ele>3.62</ele>
      </trkpt>
      <trkpt lat="51.735127" lon="0.711576">
        <ele>3.73</ele>
      </trkpt>
      <trkpt lat="51.735095" lon="0.711492">
        <ele>4.26</ele>
      </trkpt>
      <trkpt lat="51.735062" lon="0.711577">
        <ele>3.8</ele>
      </trkpt>
      <trkpt lat="51.735018" lon="0.711894">
        <ele>2.02</ele>
      </trkpt>
      <trkpt lat="51.734825" lon="0.713261">
        <ele>2.81</ele>
      </trkpt>
      <trkpt lat="51.734607" lon="0.714596">
        <ele>2.85</ele>
      </trkpt>
      <trkpt lat="51.734582" lon="0.714656">
        <ele>2.92</ele>
      </trkpt>
      <trkpt lat="51.73455" lon="0.714667">
        <ele>2.74</ele>
      </trkpt>
      <trkpt lat="51.734446" lon="0.714605">
        <ele>2.54</ele>
      </trkpt>
      <trkpt lat="51.734318" lon="0.714505">
        <ele>2.93</ele>
      </trkpt>
      <trkpt lat="51.733971" lon="0.714313">
        <ele>2.91</ele>
      </trkpt>
      <trkpt lat="51.733962" lon="0.714214">
        <ele>3.48</ele>
      </trkpt>
      <trkpt lat="51.733945" lon="0.714201">
        <ele>3.47</ele>
      </trkpt>
      <trkpt lat="51.733516" lon="0.713875">
        <ele>2.99</ele>
      </trkpt>
      <trkpt lat="51.733467" lon="0.713839">
        <ele>3.42</ele>
      </trkpt>
      <trkpt lat="51.73265" lon="0.713374">
        <ele>3.28</ele>
      </trkpt>
      <trkpt lat="51.732272" lon="0.713126">
        <ele>3.01</ele>
      </trkpt>
      <trkpt lat="51.731903" lon="0.712894">
        <ele>3.01</ele>
      </trkpt>
      <trkpt lat="51.731711" lon="0.712791">
        <ele>3.36</ele>
      </trkpt>
      <trkpt lat="51.731663" lon="0.71272">
        <ele>3.4</ele>
      </trkpt>
      <trkpt lat="51.731464" lon="0.71256">
        <ele>3.45</ele>
      </trkpt>
      <trkpt lat="51.731116" lon="0.712221">
        <ele>2.88</ele>
      </trkpt>
      <trkpt lat="51.731008" lon="0.712102">
        <ele>2.46</ele>
      </trkpt>
      <trkpt lat="51.730467" lon="0.711157">
        <ele>2.87</ele>
      </trkpt>
      <trkpt lat="51.730047" lon="0.71044">
        <ele>2.84</ele>
      </trkpt>
      <trkpt lat="51.729997" lon="0.710325">
        <ele>2.88</ele>
      </trkpt>
      <trkpt lat="51.729922" lon="0.71024">
        <ele>2.9</ele>
      </trkpt>
      <trkpt lat="51.729831" lon="0.710198">
        <ele>2.94</ele>
      </trkpt>
      <trkpt lat="51.729764" lon="0.710168">
        <ele>2.96</ele>
      </trkpt>
      <trkpt lat="51.72942" lon="0.709894">
        <ele>3.16</ele>
      </trkpt>
      <trkpt lat="51.729322" lon="0.7098">
        <ele>2.62</ele>
      </trkpt>
      <trkpt lat="51.729252" lon="0.709678">
        <ele>2.9</ele>
      </trkpt>
      <trkpt lat="51.729195" lon="0.709576">
        <ele>3.16</ele>
      </trkpt>
      <trkpt lat="51.729181" lon="0.709499">
        <ele>3.54</ele>
      </trkpt>
      <trkpt lat="51.729165" lon="0.709442">
        <ele>3.63</ele>
      </trkpt>
      <trkpt lat="51.729174" lon="0.709444">
        <ele>3.48</ele>
      </trkpt>
      <trkpt lat="51.729165" lon="0.709442">
        <ele>3.63</ele>
      </trkpt>
      <trkpt lat="51.729114" lon="0.709427">
        <ele>3.79</ele>
      </trkpt>
      <trkpt lat="51.729113" lon="0.709435">
        <ele>3.76</ele>
      </trkpt>
      <trkpt lat="51.729114" lon="0.709427">
        <ele>3.79</ele>
      </trkpt>
      <trkpt lat="51.729136" lon="0.708971">
        <ele>3.23</ele>
      </trkpt>
      <trkpt lat="51.729138" lon="0.708703">
        <ele>4</ele>
      </trkpt>
      <trkpt lat="51.729149" lon="0.708418">
        <ele>4</ele>
      </trkpt>
      <trkpt lat="51.729137" lon="0.707622">
        <ele>3.32</ele>
      </trkpt>
      <trkpt lat="51.729118" lon="0.707403">
        <ele>3.38</ele>
      </trkpt>
      <trkpt lat="51.729114" lon="0.707331">
        <ele>3.43</ele>
      </trkpt>
      <trkpt lat="51.729121" lon="0.707118">
        <ele>3.36</ele>
      </trkpt>
      <trkpt lat="51.729157" lon="0.706926">
        <ele>2.14</ele>
      </trkpt>
      <trkpt lat="51.729299" lon="0.706548">
        <ele>2.23</ele>
      </trkpt>
      <trkpt lat="51.729541" lon="0.706061">
        <ele>2.8</ele>
      </trkpt>
      <trkpt lat="51.73032" lon="0.704575">
        <ele>2.57</ele>
      </trkpt>
      <trkpt lat="51.731175" lon="0.703041">
        <ele>3</ele>
      </trkpt>
      <trkpt lat="51.731736" lon="0.701992">
        <ele>2.92</ele>
      </trkpt>
      <trkpt lat="51.731999" lon="0.701526">
        <ele>3</ele>
      </trkpt>
      <trkpt lat="51.732194" lon="0.701149">
        <ele>3</ele>
      </trkpt>
      <trkpt lat="51.732668" lon="0.700279">
        <ele>3</ele>
      </trkpt>
      <trkpt lat="51.733101" lon="0.699451">
        <ele>2.99</ele>
      </trkpt>
      <trkpt lat="51.733401" lon="0.698902">
        <ele>3</ele>
      </trkpt>
      <trkpt lat="51.734144" lon="0.697468">
        <ele>3</ele>
      </trkpt>
      <trkpt lat="51.734629" lon="0.696501">
        <ele>3</ele>
      </trkpt>
      <trkpt lat="51.734843" lon="0.696129">
        <ele>3.21</ele>
      </trkpt>
      <trkpt lat="51.735098" lon="0.695714">
        <ele>3.69</ele>
      </trkpt>
      <trkpt lat="51.735635" lon="0.694911">
        <ele>3</ele>
      </trkpt>
      <trkpt lat="51.735942" lon="0.694466">
        <ele>3</ele>
      </trkpt>
      <trkpt lat="51.736624" lon="0.693528">
        <ele>4.12</ele>
      </trkpt>
      <trkpt lat="51.736631" lon="0.693519">
        <ele>4.13</ele>
      </trkpt>
      <trkpt lat="51.73662" lon="0.693495">
        <ele>4.01</ele>
      </trkpt>
      <trkpt lat="51.736548" lon="0.693348">
        <ele>4.23</ele>
      </trkpt>
      <trkpt lat="51.736531" lon="0.693318">
        <ele>4.59</ele>
      </trkpt>
      <trkpt lat="51.736243" lon="0.693073">
        <ele>4</ele>
      </trkpt>
      <trkpt lat="51.736221" lon="0.692991">
        <ele>4</ele>
      </trkpt>
      <trkpt lat="51.735983" lon="0.692849">
        <ele>4</ele>
      </trkpt>
      <trkpt lat="51.735752" lon="0.692831">
        <ele>4</ele>
      </trkpt>
      <trkpt lat="51.735498" lon="0.692988">
        <ele>4</ele>
      </trkpt>
      <trkpt lat="51.73524" lon="0.693235">
        <ele>4</ele>
      </trkpt>
      <trkpt lat="51.735029" lon="0.693679">
        <ele>4</ele>
      </trkpt>
      <trkpt lat="51.73499" lon="0.693785">
        <ele>4</ele>
      </trkpt>
      <trkpt lat="51.734978" lon="0.693774">
        <ele>3.99</ele>
      </trkpt>
      <trkpt lat="51.734723" lon="0.693549">
        <ele>3.75</ele>
      </trkpt>
      <trkpt lat="51.734569" lon="0.69338">
        <ele>3.93</ele>
      </trkpt>
      <trkpt lat="51.734462" lon="0.693309">
        <ele>4</ele>
      </trkpt>
      <trkpt lat="51.734372" lon="0.693239">
        <ele>3.97</ele>
      </trkpt>
      <trkpt lat="51.73429" lon="0.69317">
        <ele>3.9</ele>
      </trkpt>
      <trkpt lat="51.734171" lon="0.693044">
        <ele>3.63</ele>
      </trkpt>
      <trkpt lat="51.734063" lon="0.69299">
        <ele>3.93</ele>
      </trkpt>
      <trkpt lat="51.733911" lon="0.692793">
        <ele>4</ele>
      </trkpt>
      <trkpt lat="51.733832" lon="0.692737">
        <ele>3.92</ele>
      </trkpt>
      <trkpt lat="51.733721" lon="0.692684">
        <ele>3.7</ele>
      </trkpt>
      <trkpt lat="51.733559" lon="0.692554">
        <ele>4</ele>
      </trkpt>
      <trkpt lat="51.733523" lon="0.692482">
        <ele>4</ele>
      </trkpt>
      <trkpt lat="51.733486" lon="0.692345">
        <ele>4</ele>
      </trkpt>
      <trkpt lat="51.733489" lon="0.692272">
        <ele>4</ele>
      </trkpt>
      <trkpt lat="51.733381" lon="0.692342">
        <ele>4</ele>
      </trkpt>
      <trkpt lat="51.733361" lon="0.692189">
        <ele>4</ele>
      </trkpt>
      <trkpt lat="51.733285" lon="0.691975">
        <ele>4</ele>
      </trkpt>
      <trkpt lat="51.733258" lon="0.691995">
        <ele>4.01</ele>
      </trkpt>
      <trkpt lat="51.733016" lon="0.692171">
        <ele>4.14</ele>
      </trkpt>
      <trkpt lat="51.732501" lon="0.692516">
        <ele>4.26</ele>
      </trkpt>
      <trkpt lat="51.732052" lon="0.692772">
        <ele>3.84</ele>
      </trkpt>
      <trkpt lat="51.731254" lon="0.693179">
        <ele>3.89</ele>
      </trkpt>
      <trkpt lat="51.730963" lon="0.693343">
        <ele>3.88</ele>
      </trkpt>
      <trkpt lat="51.730614" lon="0.693562">
        <ele>3.73</ele>
      </trkpt>
      <trkpt lat="51.730473" lon="0.69367">
        <ele>3.97</ele>
      </trkpt>
      <trkpt lat="51.730333" lon="0.693794">
        <ele>3.74</ele>
      </trkpt>
      <trkpt lat="51.730226" lon="0.693916">
        <ele>3.54</ele>
      </trkpt>
      <trkpt lat="51.729778" lon="0.69458">
        <ele>3.61</ele>
      </trkpt>
      <trkpt lat="51.729597" lon="0.694834">
        <ele>3.91</ele>
      </trkpt>
      <trkpt lat="51.729547" lon="0.694931">
        <ele>3.54</ele>
      </trkpt>
      <trkpt lat="51.729457" lon="0.695179">
        <ele>3.32</ele>
      </trkpt>
      <trkpt lat="51.729386" lon="0.695419">
        <ele>3.57</ele>
      </trkpt>
      <trkpt lat="51.729235" lon="0.696041">
        <ele>3.36</ele>
      </trkpt>
      <trkpt lat="51.729103" lon="0.696531">
        <ele>3.53</ele>
      </trkpt>
      <trkpt lat="51.72909" lon="0.696604">
        <ele>3.65</ele>
      </trkpt>
      <trkpt lat="51.72909" lon="0.696662">
        <ele>3.65</ele>
      </trkpt>
      <trkpt lat="51.729116" lon="0.696798">
        <ele>3.4</ele>
      </trkpt>
      <trkpt lat="51.72912" lon="0.696892">
        <ele>3.37</ele>
      </trkpt>
      <trkpt lat="51.729098" lon="0.697176">
        <ele>3.39</ele>
      </trkpt>
      <trkpt lat="51.729083" lon="0.697283">
        <ele>3.43</ele>
      </trkpt>
      <trkpt lat="51.729061" lon="0.69737">
        <ele>3.83</ele>
      </trkpt>
      <trkpt lat="51.729032" lon="0.697448">
        <ele>4</ele>
      </trkpt>
      <trkpt lat="51.728999" lon="0.697494">
        <ele>3.87</ele>
      </trkpt>
      <trkpt lat="51.728972" lon="0.697518">
        <ele>3.9</ele>
      </trkpt>
      <trkpt lat="51.728872" lon="0.697563">
        <ele>3.53</ele>
      </trkpt>
      <trkpt lat="51.728836" lon="0.697594">
        <ele>3.69</ele>
      </trkpt>
      <trkpt lat="51.728809" lon="0.697638">
        <ele>3.93</ele>
      </trkpt>
      <trkpt lat="51.728785" lon="0.697703">
        <ele>3.77</ele>
      </trkpt>
      <trkpt lat="51.728681" lon="0.698111">
        <ele>3.49</ele>
      </trkpt>
      <trkpt lat="51.728509" lon="0.698636">
        <ele>3.89</ele>
      </trkpt>
      <trkpt lat="51.728465" lon="0.698844">
        <ele>3.46</ele>
      </trkpt>
      <trkpt lat="51.728451" lon="0.699061">
        <ele>3.29</ele>
      </trkpt>
      <trkpt lat="51.728449" lon="0.699388">
        <ele>3.33</ele>
      </trkpt>
      <trkpt lat="51.728391" lon="0.700195">
        <ele>3.21</ele>
      </trkpt>
      <trkpt lat="51.728399" lon="0.700308">
        <ele>3.13</ele>
      </trkpt>
      <trkpt lat="51.72842" lon="0.70041">
        <ele>3.15</ele>
      </trkpt>
      <trkpt lat="51.728627" lon="0.700973">
        <ele>3.48</ele>
      </trkpt>
      <trkpt lat="51.728721" lon="0.70136">
        <ele>3.19</ele>
      </trkpt>
      <trkpt lat="51.728819" lon="0.701624">
        <ele>3.41</ele>
      </trkpt>
      <trkpt lat="51.728834" lon="0.701714">
        <ele>3.81</ele>
      </trkpt>
      <trkpt lat="51.728826" lon="0.701825">
        <ele>4</ele>
      </trkpt>
      <trkpt lat="51.728775" lon="0.702058">
        <ele>4.19</ele>
      </trkpt>
      <trkpt lat="51.728708" lon="0.702329">
        <ele>3.72</ele>
      </trkpt>
      <trkpt lat="51.728656" lon="0.702432">
        <ele>3.73</ele>
      </trkpt>
      <trkpt lat="51.728541" lon="0.702594">
        <ele>4.66</ele>
      </trkpt>
      <trkpt lat="51.728478" lon="0.702675">
        <ele>3.9</ele>
      </trkpt>
      <trkpt lat="51.727555" lon="0.703505">
        <ele>3.79</ele>
      </trkpt>
      <trkpt lat="51.727419" lon="0.703605">
        <ele>3.21</ele>
      </trkpt>
      <trkpt lat="51.727278" lon="0.703665">
        <ele>3.56</ele>
      </trkpt>
      <trkpt lat="51.726928" lon="0.70376">
        <ele>3.31</ele>
      </trkpt>
      <trkpt lat="51.72662" lon="0.703827">
        <ele>3.92</ele>
      </trkpt>
      <trkpt lat="51.726511" lon="0.703841">
        <ele>3.7</ele>
      </trkpt>
      <trkpt lat="51.726322" lon="0.703808">
        <ele>4</ele>
      </trkpt>
      <trkpt lat="51.72624" lon="0.703814">
        <ele>3.99</ele>
      </trkpt>
      <trkpt lat="51.725182" lon="0.704144">
        <ele>3.9</ele>
      </trkpt>
      <trkpt lat="51.72512" lon="0.704174">
        <ele>3.89</ele>
      </trkpt>
      <trkpt lat="51.725078" lon="0.704211">
        <ele>3.57</ele>
      </trkpt>
      <trkpt lat="51.724866" lon="0.704466">
        <ele>3.88</ele>
      </trkpt>
      <trkpt lat="51.724545" lon="0.704721">
        <ele>4.28</ele>
      </trkpt>
      <trkpt lat="51.724518" lon="0.704779">
        <ele>3.96</ele>
      </trkpt>
      <trkpt lat="51.724411" lon="0.705145">
        <ele>3.71</ele>
      </trkpt>
      <trkpt lat="51.724304" lon="0.705396">
        <ele>3.46</ele>
      </trkpt>
      <trkpt lat="51.724151" lon="0.70571">
        <ele>3.99</ele>
      </trkpt>
      <trkpt lat="51.724052" lon="0.705932">
        <ele>3.7</ele>
      </trkpt>
      <trkpt lat="51.724043" lon="0.706002">
        <ele>3.23</ele>
      </trkpt>
      <trkpt lat="51.724048" lon="0.706066">
        <ele>2.93</ele>
      </trkpt>
      <trkpt lat="51.72408" lon="0.706148">
        <ele>2.94</ele>
      </trkpt>
      <trkpt lat="51.724241" lon="0.706423">
        <ele>3.4</ele>
      </trkpt>
      <trkpt lat="51.724332" lon="0.706639">
        <ele>3.09</ele>
      </trkpt>
      <trkpt lat="51.724386" lon="0.706804">
        <ele>2.88</ele>
      </trkpt>
      <trkpt lat="51.724458" lon="0.706985">
        <ele>2.98</ele>
      </trkpt>
      <trkpt lat="51.724835" lon="0.707685">
        <ele>2.61</ele>
      </trkpt>
      <trkpt lat="51.724958" lon="0.707834">
        <ele>2.82</ele>
      </trkpt>
      <trkpt lat="51.725068" lon="0.707864">
        <ele>2.89</ele>
      </trkpt>
      <trkpt lat="51.725209" lon="0.707839">
        <ele>3.19</ele>
      </trkpt>
      <trkpt lat="51.725355" lon="0.707849">
        <ele>3.07</ele>
      </trkpt>
      <trkpt lat="51.725486" lon="0.70791">
        <ele>2.79</ele>
      </trkpt>
      <trkpt lat="51.725732" lon="0.708004">
        <ele>3.27</ele>
      </trkpt>
      <trkpt lat="51.725802" lon="0.707995">
        <ele>3.37</ele>
      </trkpt>
      <trkpt lat="51.725893" lon="0.70791">
        <ele>3.6</ele>
      </trkpt>
      <trkpt lat="51.725979" lon="0.70778">
        <ele>3.93</ele>
      </trkpt>
      <trkpt lat="51.726037" lon="0.707727">
        <ele>3.93</ele>
      </trkpt>
      <trkpt lat="51.726079" lon="0.707722">
        <ele>4</ele>
      </trkpt>
      <trkpt lat="51.726122" lon="0.70774">
        <ele>4</ele>
      </trkpt>
      <trkpt lat="51.726181" lon="0.70779">
        <ele>3.92</ele>
      </trkpt>
      <trkpt lat="51.726622" lon="0.708233">
        <ele>3.45</ele>
      </trkpt>
      <trkpt lat="51.727351" lon="0.70887">
        <ele>3.59</ele>
      </trkpt>
      <trkpt lat="51.727633" lon="0.70909">
        <ele>3.56</ele>
      </trkpt>
      <trkpt lat="51.727747" lon="0.709145">
        <ele>4</ele>
      </trkpt>
      <trkpt lat="51.72804" lon="0.709262">
        <ele>3.5</ele>
      </trkpt>
      <trkpt lat="51.728213" lon="0.709368">
        <ele>3.39</ele>
      </trkpt>
      <trkpt lat="51.728467" lon="0.709567">
        <ele>3.86</ele>
      </trkpt>
      <trkpt lat="51.728531" lon="0.709617">
        <ele>3.97</ele>
      </trkpt>
      <trkpt lat="51.728801" lon="0.70982">
        <ele>2.44</ele>
      </trkpt>
      <trkpt lat="51.728841" lon="0.709816">
        <ele>2.07</ele>
      </trkpt>
      <trkpt lat="51.728858" lon="0.709758">
        <ele>2.01</ele>
      </trkpt>
      <trkpt lat="51.728867" lon="0.709551">
        <ele>3.19</ele>
      </trkpt>
      <trkpt lat="51.728878" lon="0.709459">
        <ele>3.63</ele>
      </trkpt>
      <trkpt lat="51.728951" lon="0.709387">
        <ele>3.32</ele>
      </trkpt>
      <trkpt lat="51.728987" lon="0.709352">
        <ele>3.39</ele>
      </trkpt>
      <trkpt lat="51.72905" lon="0.70938">
        <ele>3.51</ele>
      </trkpt>
      <trkpt lat="51.729079" lon="0.709388">
        <ele>3.59</ele>
      </trkpt>
      <trkpt lat="51.729117" lon="0.7094">
        <ele>3.68</ele>
      </trkpt>
      <trkpt lat="51.729114" lon="0.709427">
        <ele>3.79</ele>
      </trkpt>
      <trkpt lat="51.729099" lon="0.709537">
        <ele>3.4</ele>
      </trkpt>
      <trkpt lat="51.729195" lon="0.709576">
        <ele>3.16</ele>
      </trkpt>
      <trkpt lat="51.729252" lon="0.709678">
        <ele>2.9</ele>
      </trkpt>
      <trkpt lat="51.729322" lon="0.7098">
        <ele>2.62</ele>
      </trkpt>
      <trkpt lat="51.729466" lon="0.709934">
        <ele>3.52</ele>
      </trkpt>
      <trkpt lat="51.729764" lon="0.710168">
        <ele>2.96</ele>
      </trkpt>
      <trkpt lat="51.729922" lon="0.71024">
        <ele>2.9</ele>
      </trkpt>
      <trkpt lat="51.729997" lon="0.710325">
        <ele>2.88</ele>
      </trkpt>
      <trkpt lat="51.730047" lon="0.71044">
        <ele>2.84</ele>
      </trkpt>
      <trkpt lat="51.730319" lon="0.710898">
        <ele>2.98</ele>
      </trkpt>
      <trkpt lat="51.731008" lon="0.712102">
        <ele>2.46</ele>
      </trkpt>
      <trkpt lat="51.731116" lon="0.712221">
        <ele>2.88</ele>
      </trkpt>
      <trkpt lat="51.731464" lon="0.71256">
        <ele>3.45</ele>
      </trkpt>
      <trkpt lat="51.731663" lon="0.71272">
        <ele>3.4</ele>
      </trkpt>
      <trkpt lat="51.731711" lon="0.712791">
        <ele>3.36</ele>
      </trkpt>
      <trkpt lat="51.731903" lon="0.712894">
        <ele>3.01</ele>
      </trkpt>
      <trkpt lat="51.732184" lon="0.713067">
        <ele>2.95</ele>
      </trkpt>
      <trkpt lat="51.73265" lon="0.713374">
        <ele>3.28</ele>
      </trkpt>
      <trkpt lat="51.733467" lon="0.713839">
        <ele>3.42</ele>
      </trkpt>
      <trkpt lat="51.733962" lon="0.714214">
        <ele>3.48</ele>
      </trkpt>
      <trkpt lat="51.733971" lon="0.714313">
        <ele>2.91</ele>
      </trkpt>
      <trkpt lat="51.734011" lon="0.714335">
        <ele>2.74</ele>
      </trkpt>
      <trkpt lat="51.734318" lon="0.714505">
        <ele>2.93</ele>
      </trkpt>
      <trkpt lat="51.734446" lon="0.714605">
        <ele>2.54</ele>
      </trkpt>
      <trkpt lat="51.73455" lon="0.714667">
        <ele>2.74</ele>
      </trkpt>
      <trkpt lat="51.734582" lon="0.714656">
        <ele>2.92</ele>
      </trkpt>
      <trkpt lat="51.734607" lon="0.714596">
        <ele>2.85</ele>
      </trkpt>
      <trkpt lat="51.734825" lon="0.713261">
        <ele>2.81</ele>
      </trkpt>
      <trkpt lat="51.735018" lon="0.711894">
        <ele>2.02</ele>
      </trkpt>
      <trkpt lat="51.735062" lon="0.711577">
        <ele>3.8</ele>
      </trkpt>
      <trkpt lat="51.735095" lon="0.711492">
        <ele>4.26</ele>
      </trkpt>
      <trkpt lat="51.735127" lon="0.711576">
        <ele>3.73</ele>
      </trkpt>
      <trkpt lat="51.736464" lon="0.712185">
        <ele>3.18</ele>
      </trkpt>
      <trkpt lat="51.736522" lon="0.71219">
        <ele>3.05</ele>
      </trkpt>
      <trkpt lat="51.736558" lon="0.712141">
        <ele>2.65</ele>
      </trkpt>
      <trkpt lat="51.736663" lon="0.711484">
        <ele>3.07</ele>
      </trkpt>
      <trkpt lat="51.736749" lon="0.711007">
        <ele>3.38</ele>
      </trkpt>
      <trkpt lat="51.736785" lon="0.710976">
        <ele>3.73</ele>
      </trkpt>
      <trkpt lat="51.736828" lon="0.710975">
        <ele>3.99</ele>
      </trkpt>
      <trkpt lat="51.736849" lon="0.710989">
        <ele>3.75</ele>
      </trkpt>
      <trkpt lat="51.737428" lon="0.712381">
        <ele>3.58</ele>
      </trkpt>
      <trkpt lat="51.737491" lon="0.712567">
        <ele>3.8</ele>
      </trkpt>
      <trkpt lat="51.737516" lon="0.712727">
        <ele>3.54</ele>
      </trkpt>
      <trkpt lat="51.73751" lon="0.71277">
        <ele>3.6</ele>
      </trkpt>
      <trkpt lat="51.737487" lon="0.712831">
        <ele>3.82</ele>
      </trkpt>
      <trkpt lat="51.737479" lon="0.712907">
        <ele>3.9</ele>
      </trkpt>
      <trkpt lat="51.737493" lon="0.713044">
        <ele>4.27</ele>
      </trkpt>
      <trkpt lat="51.737529" lon="0.713222">
        <ele>3.95</ele>
      </trkpt>
      <trkpt lat="51.737611" lon="0.713427">
        <ele>3.66</ele>
      </trkpt>
      <trkpt lat="51.737636" lon="0.71355">
        <ele>3.16</ele>
      </trkpt>
      <trkpt lat="51.737646" lon="0.71371">
        <ele>3</ele>
      </trkpt>
      <trkpt lat="51.737629" lon="0.714148">
        <ele>3</ele>
      </trkpt>
      <trkpt lat="51.737592" lon="0.714309">
        <ele>3</ele>
      </trkpt>
      <trkpt lat="51.737439" lon="0.714723">
        <ele>3</ele>
      </trkpt>
      <trkpt lat="51.737422" lon="0.714866">
        <ele>3.11</ele>
      </trkpt>
      <trkpt lat="51.737413" lon="0.714912">
        <ele>3.27</ele>
      </trkpt>
      <trkpt lat="51.737394" lon="0.714945">
        <ele>3.5</ele>
      </trkpt>
      <trkpt lat="51.737377" lon="0.715019">
        <ele>3.7</ele>
      </trkpt>
      <trkpt lat="51.737356" lon="0.715178">
        <ele>3</ele>
      </trkpt>
      <trkpt lat="51.737342" lon="0.715237">
        <ele>3.08</ele>
      </trkpt>
      <trkpt lat="51.737275" lon="0.715344">
        <ele>3.77</ele>
      </trkpt>
      <trkpt lat="51.737127" lon="0.715432">
        <ele>3.36</ele>
      </trkpt>
      <trkpt lat="51.736971" lon="0.715557">
        <ele>3.48</ele>
      </trkpt>
      <trkpt lat="51.7368" lon="0.715544">
        <ele>3.65</ele>
      </trkpt>
      <trkpt lat="51.736722" lon="0.715559">
        <ele>3.71</ele>
      </trkpt>
      <trkpt lat="51.736687" lon="0.715623">
        <ele>3.44</ele>
      </trkpt>
      <trkpt lat="51.7366" lon="0.715745">
        <ele>3.44</ele>
      </trkpt>
      <trkpt lat="51.736555" lon="0.715844">
        <ele>2.99</ele>
      </trkpt>
      <trkpt lat="51.736613" lon="0.716421">
        <ele>3.96</ele>
      </trkpt>
      <trkpt lat="51.736622" lon="0.71657">
        <ele>3.87</ele>
      </trkpt>
      <trkpt lat="51.736606" lon="0.716789">
        <ele>3.83</ele>
      </trkpt>
      <trkpt lat="51.736605" lon="0.716918">
        <ele>3.79</ele>
      </trkpt>
      <trkpt lat="51.736636" lon="0.717193">
        <ele>3.77</ele>
      </trkpt>
      <trkpt lat="51.736703" lon="0.717458">
        <ele>3.21</ele>
      </trkpt>
      <trkpt lat="51.736741" lon="0.717896">
        <ele>3.8</ele>
      </trkpt>
      <trkpt lat="51.736736" lon="0.719125">
        <ele>3.87</ele>
      </trkpt>
      <trkpt lat="51.73669" lon="0.719441">
        <ele>4.29</ele>
      </trkpt>
      <trkpt lat="51.736491" lon="0.720602">
        <ele>3.26</ele>
      </trkpt>
      <trkpt lat="51.736453" lon="0.720883">
        <ele>3.53</ele>
      </trkpt>
      <trkpt lat="51.736396" lon="0.721169">
        <ele>3.08</ele>
      </trkpt>
      <trkpt lat="51.736361" lon="0.721566">
        <ele>3.18</ele>
      </trkpt>
      <trkpt lat="51.736339" lon="0.721694">
        <ele>2.63</ele>
      </trkpt>
      <trkpt lat="51.736294" lon="0.721853">
        <ele>3.02</ele>
      </trkpt>
      <trkpt lat="51.736192" lon="0.722124">
        <ele>2.52</ele>
      </trkpt>
      <trkpt lat="51.736094" lon="0.722331">
        <ele>3.2</ele>
      </trkpt>
      <trkpt lat="51.735742" lon="0.722989">
        <ele>2.6</ele>
      </trkpt>
      <trkpt lat="51.735606" lon="0.723308">
        <ele>2.82</ele>
      </trkpt>
      <trkpt lat="51.735461" lon="0.723684">
        <ele>2.39</ele>
      </trkpt>
      <trkpt lat="51.735223" lon="0.724122">
        <ele>2.93</ele>
      </trkpt>
      <trkpt lat="51.734881" lon="0.724807">
        <ele>2.96</ele>
      </trkpt>
      <trkpt lat="51.734805" lon="0.724984">
        <ele>2.91</ele>
      </trkpt>
      <trkpt lat="51.734575" lon="0.725595">
        <ele>2.46</ele>
      </trkpt>
      <trkpt lat="51.73434" lon="0.725997">
        <ele>2.37</ele>
      </trkpt>
      <trkpt lat="51.734152" lon="0.726374">
        <ele>2.85</ele>
      </trkpt>
      <trkpt lat="51.733946" lon="0.72685">
        <ele>3</ele>
      </trkpt>
      <trkpt lat="51.733919" lon="0.726932">
        <ele>2.72</ele>
      </trkpt>
      <trkpt lat="51.73391" lon="0.727072">
        <ele>2.49</ele>
      </trkpt>
      <trkpt lat="51.733861" lon="0.727367">
        <ele>2.91</ele>
      </trkpt>
      <trkpt lat="51.73383" lon="0.727402">
        <ele>3</ele>
      </trkpt>
      <trkpt lat="51.73388" lon="0.727433">
        <ele>2.46</ele>
      </trkpt>
      <trkpt lat="51.733948" lon="0.727413">
        <ele>2.04</ele>
      </trkpt>
      <trkpt lat="51.734201" lon="0.727677">
        <ele>2</ele>
      </trkpt>
      <trkpt lat="51.734968" lon="0.728514">
        <ele>2</ele>
      </trkpt>
      <trkpt lat="51.734899" lon="0.728649">
        <ele>2</ele>
      </trkpt>
      <trkpt lat="51.735107" lon="0.728739">
        <ele>2.92</ele>
      </trkpt>
      <trkpt lat="51.735136" lon="0.728781">
        <ele>2.74</ele>
      </trkpt>
      <trkpt lat="51.735186" lon="0.728728">
        <ele>2.45</ele>
      </trkpt>
      <trkpt lat="51.735845" lon="0.728559">
        <ele>3</ele>
      </trkpt>
    </trkseg>
  </trk>
</gpx>
